OSCAR 7 (AO-7)          
1 07530U 74089B   20259.89291333 -.00000041  00000-0  25546-4 0  9991
2 07530 101.8102 229.1600 0011985 188.3886 227.2683 12.53645125 97321
UOSAT 2 (UO-11)         
1 14781U 84021B   20259.89368532  .00000057  00000-0  13064-4 0  9998
2 14781  97.5910 267.3700 0006933 263.0541  96.9885 14.83191231945232
LUSAT (LO-19)           
1 20442U 90005G   20259.79673779 -.00000015  00000-0  11059-4 0  9996
2 20442  98.6992 207.3827 0010658 247.4126 112.5930 14.32960487601554
EYESAT A (AO-27)        
1 22825U 93061C   20259.83781848 -.00000000  00000-0  17847-4 0  9995
2 22825  98.9264 264.5752 0009438 111.5246 248.6942 14.30092533406739
ITAMSAT (IO-26)         
1 22826U 93061D   20259.94292977 -.00000003  00000-0  16639-4 0  9999
2 22826  98.9205 264.6198 0010029 100.5290 259.7022 14.30428901406986
RADIO ROSTO (RS-15)     
1 23439U 94085A   20259.85222804 -.00000021  00000-0  61871-3 0  9996
2 23439  64.8146 100.0594 0151958  25.2719 335.5541 11.27569131 59215
JAS-2 (FO-29)           
1 24278U 96046B   20259.89747862 -.00000022  00000-0  11385-4 0  9994
2 24278  98.5887 357.9127 0351073 140.5607 222.1661 13.53099888189110
TECHSAT 1B (GO-32)      
1 25397U 98043D   20259.82509528 -.00000023  00000-0  92659-5 0  9999
2 25397  98.7334 200.6580 0001964 125.1942 234.9421 14.23690321152416
ISS (ZARYA)             
1 25544U 98067A   20260.11956330  .00000212  00000-0  11983-4 0  9999
2 25544  51.6436 258.4829 0000966 101.8795  12.6219 15.48949487246111
PCSAT (NO-44)           
1 26931U 01043C   20259.77571417 -.00000043  00000-0  15301-4 0  9998
2 26931  67.0494 269.3065 0006515 275.9232  84.1126 14.30587254989996
SAUDISAT 1C (SO-50)     
1 27607U 02058C   20259.90919378 -.00000015  00000-0  18323-4 0  9999
2 27607  64.5544  97.8067 0037061 147.1167 213.2253 14.75658615954074
CUTE-1 (CO-55)          
1 27844U 03031E   20259.90358228  .00000039  00000-0  37045-4 0  9992
2 27844  98.6833 266.2763 0010413 147.9740 212.2072 14.22255845892954
CUBESAT XI-IV (CO-57)   
1 27848U 03031J   20259.81582267  .00000036  00000-0  35944-4 0  9991
2 27848  98.6899 266.7537 0010071 160.1669 199.9902 14.21840547892783
MOZHAYETS 4 (RS-22)     
1 27939U 03042A   20259.90492834  .00000088  00000-0  24330-4 0  9998
2 27939  98.1029  33.5875 0014201  70.4467 289.8269 14.66885743907279
CUBESAT XI-V            
1 28895U 05043F   20259.91851118  .00000083  00000-0  24787-4 0  9999
2 28895  98.0224  33.8037 0016655   0.4397 359.6818 14.63798598793840
CUTE-1.7+APD II (CO-65) 
1 32785U 08021C   20259.74745203  .00000139  00000-0  20571-4 0  9998
2 32785  97.5807 243.8270 0012666 187.0844 173.0197 14.88513503671305
DELFI-C3 (DO-64)        
1 32789U 08021G   20259.85308365  .00001170  00000-0  80035-4 0  9995
2 32789  97.4114 299.4676 0012120  14.1333 346.0233 15.07921455675436
SEEDS II (CO-66)        
1 32791U 08021J   20259.72613142  .00000368  00000-0  42378-4 0  9992
2 32791  97.5470 249.9179 0013795 155.4841 204.7036 14.91108140671836
YUBILEINY (RS-30)       
1 32953U 08025A   20259.94076619  .00000037  00000-0  19437-3 0  9994
2 32953  82.5023 221.6260 0018144 214.0927 145.8989 12.43098121558874
KKS-1 (KISEKI)          
1 33499U 09002H   20259.91203997  .00000067  00000-0  17749-4 0  9992
2 33499  98.3057 117.1353 0008721 188.7704 171.3353 14.75558657625926
SWISSCUBE               
1 35932U 09051B   20259.76617831  .00000101  00000-0  33903-4 0  9998
2 35932  98.6124  84.9645 0007007 202.3432 157.7461 14.56423553583016
BEESAT-1                
1 35933U 09051C   20259.74397401  .00000088  00000-0  30781-4 0  9990
2 35933  98.6112  86.8094 0004976 214.3368 145.7508 14.56495648583121
ITUPSAT1                
1 35935U 09051E   20259.79175233  .00000074  00000-0  28097-4 0  9996
2 35935  98.6218  87.0457 0007301 216.5785 143.4914 14.55638535582812
XIWANG-1 (HOPE-1)       
1 36122U 09072B   20259.77457822 -.00000036  00000-0  17042-4 0  9990
2 36122 100.0990 246.2392 0007957  19.1142 341.0275 13.16356068516754
JUGNU                   
1 37839U 11058B   20259.89980366  .00000310  00000-0  23520-4 0  9992
2 37839  19.9613  94.2570 0018896 305.4950  84.2093 14.12688202461591
SRMSAT                  
1 37841U 11058D   20259.10896677  .00000324  00000-0  33078-4 0  9994
2 37841  19.9711 165.2392 0011955 148.6094 197.5255 14.10670652460831
M-CUBED & EXP-1 PRIME   
1 37855U 11061F   20259.90729852  .00001740  00000-0  92514-4 0  9994
2 37855 101.7216  34.9796 0170474 166.4142 194.1745 15.06516304484821
STRAND-1                
1 39090U 13009E   20259.78489165  .00000038  00000-0  28206-4 0  9993
2 39090  98.4495 102.1255 0009655  22.8666 337.2947 14.35143958395648
SOMP                    
1 39134U 13015E   20259.64300131  .00001109  00000-0  58265-4 0  9997
2 39134  64.8642 345.2324 0025747 229.5603 130.3280 15.21265039409775
BEESAT-3                
1 39135U 13015F   20259.68083422  .00001071  00000-0  61056-4 0  9993
2 39135  64.8688   9.9831 0033389 228.8301 130.9944 15.18346148409300
BEESAT-2                
1 39136U 13015G   20259.69872709  .00000853  00000-0  51450-4 0  9993
2 39136  64.8749  15.2188 0034881 269.8180  89.8949 15.17735552408814
ZACUBE-1 (TSHEPISOSAT)  
1 39417U 13066B   20259.88189355  .00000177  00000-0  28546-4 0  9999
2 39417  97.5703 252.8952 0058384 342.9155  17.0092 14.81317391368427
GOMX-1                  
1 39430U 13066Q   20259.82621914  .00000079  00000-0  23816-4 0  9996
2 39430  97.7930 192.9079 0149474 260.0160  98.4149 14.59435244362981
CUBEBUG-2 (LO-74)       
1 39440U 13066AA  20259.92242467  .00000182  00000-0  32059-4 0  9994
2 39440  97.6397 237.4636 0081276  47.2062 313.5945 14.76051222365924
FUNCUBE-1 (AO-73)       
1 39444U 13066AE  20259.89487464  .00000234  00000-0  34981-4 0  9996
2 39444  97.5640 255.1856 0057262 334.5957  25.2444 14.82179425366769
UWE-3                   
1 39446U 13066AG  20259.89139822  .00000186  00000-0  31244-4 0  9995
2 39446  97.6059 244.5869 0070403  16.0183 344.3232 14.78585101365932
SPROUT                  
1 39770U 14029E   20259.87343862  .00000546  00000-0  65787-4 0  9993
2 39770  97.9010   5.7967 0009737  36.7394 323.4476 14.87853460342505
UNISAT-6                
1 40012U 14033C   20259.54643534  .00000156  00000-0  30346-4 0  9992
2 40012  97.7013 110.0327 0059649  69.5768 291.1833 14.74152595335690
DUCHIFAT-1              
1 40021U 14033M   20259.81493897  .00000351  00000-0  41408-4 0  9995
2 40021  97.9441 191.6160 0012888 356.5813   3.5315 14.90971852339351
QB50P1                  
1 40025U 14033R   20259.76231212  .00000187  00000-0  25754-4 0  9997
2 40025  97.9137 184.0581 0012691   9.0964 351.0480 14.89185888339043
NUDT-PHONESAT           
1 40900U 15049B   20259.77894421  .00001626  00000-0  69086-4 0  9990
2 40900  97.4313 269.9640 0013521  32.9429  21.7343 15.24428851276958
ZDPS 2A                 
1 40901U 15049C   20259.82884465  .00000792  00000-0  41641-4 0  9994
2 40901  97.4636 264.3696 0014933  61.7229  62.2903 15.18461509276281
ZDPS 2B                 
1 40902U 15049D   20259.81126334  .00000956  00000-0  49597-4 0  9998
2 40902  97.4635 261.6233 0014906  59.2989  64.9623 15.18461981276252
XW-2A                   
1 40903U 15049E   20259.77283005  .00001453  00000-0  34420-4 0  9995
2 40903  97.2792 308.7593 0011306 299.7848 197.1369 15.43402816280401
KAITUO 1A               
1 40904U 15049F   20259.78323826  .00000073  00000-0  72852-5 0  9992
2 40904  97.4803 259.4877 0016210  72.0818 108.2887 15.15780085275927
2015-049G               
1 40905U 15049G   20259.79422660  .00000508  00000-0  30969-4 0  9995
2 40905  97.4893 256.6677 0017192  69.9974  53.8423 15.14622576275753
XW-2C                   
1 40906U 15049H   20259.80446965  .00000605  00000-0  34706-4 0  9993
2 40906  97.4804 259.8385 0016352  63.0647  61.5214 15.16170588275944
XW-2D                   
1 40907U 15049J   20259.79294503  .00000464  00000-0  27249-4 0  9998
2 40907  97.4786 259.5486 0015626  60.2562 113.2731 15.16414749275962
LILACSAT-2              
1 40908U 15049K   20259.79235043  .00000390  00000-0  24960-4 0  9998
2 40908  97.4950 257.7764 0017514  70.4719  53.5219 15.14101138275667
XW-2F                   
1 40910U 15049M   20259.80773412  .00000896  00000-0  47168-4 0  9996
2 40910  97.4710 262.2727 0016020  50.4990  73.6929 15.18098567276043
XW-2B                   
1 40911U 15049N   20259.83759468  .00000294  00000-0  18593-4 0  9997
2 40911  97.4800 260.2917 0015601  61.5405  58.7678 15.16337697275863
KAITUO 1B               
1 40912U 15049P   20259.79994146  .00000863  00000-0  42533-4 0  9990
2 40912  97.4494 266.4982 0015605  29.0204 144.1537 15.20513084276443
TIANWANG 1C (TW-1C)     
1 40926U 15051B   20259.70503373  .00025979  00000-0  21941-3 0  9991
2 40926  97.0750 312.2495 0007402 106.6656  11.8218 15.69718234281165
TIANWANG 1A (TW-1A)     
1 40928U 15051D   20259.86208333  .00002377  00000-0  55657-4 0  9997
2 40928  97.1051 285.4895 0009099 209.2352 143.5797 15.43061929279306
LAPAN-A2                
1 40931U 15052B   20259.85513879  .00000688  00000-0  67465-5 0  9999
2 40931   5.9990  50.7253 0012901 115.2893 244.8588 14.76642472268643
E-ST@R-II               
1 41459U 16025D   20259.79132794  .00001515  00000-0  80090-4 0  9990
2 41459  98.1118  14.5373 0162977 267.5511  90.7045 15.06630597241043
AAUSAT 4                
1 41460U 16025E   20259.78772310  .00001779  00000-0  90328-4 0  9992
2 41460  98.1088  17.1929 0151792 255.2248 103.2111 15.09023434241268
NUSAT-1 (FRESCO)        
1 41557U 16033B   20259.87584828  .00001062  00000-0  41243-4 0  9990
2 41557  97.4027 349.5192 0014879 124.3596 235.9053 15.28211078239584
BEESAT-4                
1 41619U 16040W   20259.69988488  .00001088  00000-0  47440-4 0  9990
2 41619  97.3112 317.0676 0010033 213.7052 146.3549 15.24220542223144
